{
  "type": "FeatureCollection",
  "features": [
    {
      "type": "Feature",
      "properties": {
        "norad_id": 35052,
        "name": "IRIDIUM 33 DEB",
        "group": "iridium-33-debris",
        "lat": 8.471307387471922,
        "lon": 16.647151869156524,
        "alt_km": 758.8139788555518,
        "timestamp": "2025-12-22T22:44:21.363876+00:00",
        "meta_object_name": "IRIDIUM 33 DEB",
        "meta_object_id": "1997-051NY",
        "meta_epoch": "2025-12-20T18:56:48.199200",
        "meta_mean_motion": 14.3850059,
        "meta_eccentricity": 0.00133727,
        "meta_inclination": 86.33,
        "meta_ra_of_asc_node": 17.0245,
        "meta_arg_of_pericenter": 62.6597,
        "meta_mean_anomaly": 297.5961,
        "meta_ephemeris_type": 0,
        "meta_classification_type": "U",
        "meta_norad_cat_id": 35052,
        "meta_element_set_no": 999,
        "meta_rev_at_epoch": 87391,
        "meta_bstar": 0.00012651118,
        "meta_mean_motion_dot": 4.07e-06,
        "meta_mean_motion_ddot": 0,
        "tle_line1": "1 35052U 97051NY  25354.78944675  .00000407  00000+0  12651-3 0  9994",
        "tle_line2": "2 35052  86.3300  17.0245 0013372  62.6597 297.5961 14.38500590873919"
      },
      "geometry": {
        "type": "Point",
        "coordinates": [
          16.647151869156524,
          8.471307387471922
        ]
      }
    },
    {
      "type": "Feature",
      "properties": {
        "norad_id": 35080,
        "name": "IRIDIUM 33 DEB",
        "group": "iridium-33-debris",
        "lat": 30.090159084544606,
        "lon": -134.7077598419074,
        "alt_km": 564.8406714950916,
        "timestamp": "2025-12-22T22:44:21.363887+00:00",
        "meta_object_name": "IRIDIUM 33 DEB",
        "meta_object_id": "1997-051PF",
        "meta_epoch": "2025-12-20T15:09:22.011264",
        "meta_mean_motion": 14.86879121,
        "meta_eccentricity": 0.005897,
        "meta_inclination": 86.2079,
        "meta_ra_of_asc_node": 48.603,
        "meta_arg_of_pericenter": 152.5629,
        "meta_mean_anomaly": 207.8731,
        "meta_ephemeris_type": 0,
        "meta_classification_type": "U",
        "meta_norad_cat_id": 35080,
        "meta_element_set_no": 999,
        "meta_rev_at_epoch": 69805,
        "meta_bstar": 0.0035206,
        "meta_mean_motion_dot": 0.00032575,
        "meta_mean_motion_ddot": 0,
        "tle_line1": "1 35080U 97051PF  25354.63150476  .00032575  00000+0  35206-2 0  9998",
        "tle_line2": "2 35080  86.2079  48.6030 0058970 152.5629 207.8731 14.86879121698053"
      },
      "geometry": {
        "type": "Point",
        "coordinates": [
          -134.7077598419074,
          30.090159084544606
        ]
      }
    },
    {
      "type": "Feature",
      "properties": {
        "norad_id": 35297,
        "name": "IRIDIUM 33 DEB",
        "group": "iridium-33-debris",
        "lat": 18.896913883102155,
        "lon": -122.83675998285003,
        "alt_km": 733.7693751098177,
        "timestamp": "2025-12-22T22:44:21.363897+00:00",
        "meta_object_name": "IRIDIUM 33 DEB",
        "meta_object_id": "1997-051PM",
        "meta_epoch": "2025-12-20T11:50:15.220608",
        "meta_mean_motion": 14.451882,
        "meta_eccentricity": 0.00180204,
        "meta_inclination": 86.386,
        "meta_ra_of_asc_node": 59.4502,
        "meta_arg_of_pericenter": 117.2164,
        "meta_mean_anomaly": 243.0877,
        "meta_ephemeris_type": 0,
        "meta_classification_type": "U",
        "meta_norad_cat_id": 35297,
        "meta_element_set_no": 999,
        "meta_rev_at_epoch": 70538,
        "meta_bstar": 0.00041153613,
        "meta_mean_motion_dot": 1.463e-05,
        "meta_mean_motion_ddot": 0,
        "tle_line1": "1 35297U 97051PM  25354.49323172  .00001463  00000+0  41154-3 0  9999",
        "tle_line2": "2 35297  86.3860  59.4502 0018020 117.2164 243.0877 14.45188200705384"
      },
      "geometry": {
        "type": "Point",
        "coordinates": [
          -122.83675998285003,
          18.896913883102155
        ]
      }
    },
    {
      "type": "Feature",
      "properties": {
        "norad_id": 35299,
        "name": "IRIDIUM 33 DEB",
        "group": "iridium-33-debris",
        "lat": -64.16480337945337,
        "lon": 21.03416989445606,
        "alt_km": 791.811856589221,
        "timestamp": "2025-12-22T22:44:21.363907+00:00",
        "meta_object_name": "IRIDIUM 33 DEB",
        "meta_object_id": "1997-051PP",
        "meta_epoch": "2025-12-22T13:44:18.048768",
        "meta_mean_motion": 14.40906942,
        "meta_eccentricity": 0.00586525,
        "meta_inclination": 86.2871,
        "meta_ra_of_asc_node": 28.9049,
        "meta_arg_of_pericenter": 71.0129,
        "meta_mean_anomaly": 80.9234,
        "meta_ephemeris_type": 0,
        "meta_classification_type": "U",
        "meta_norad_cat_id": 35299,
        "meta_element_set_no": 999,
        "meta_rev_at_epoch": 86472,
        "meta_bstar": 0.00074859853,
        "meta_mean_motion_dot": 2.47e-05,
        "meta_mean_motion_ddot": 0,
        "tle_line1": "1 35299U 97051PP  25356.57243112  .00002470  00000+0  74860-3 0  9996",
        "tle_line2": "2 35299  86.2871  28.9049 0058652  71.0129  80.9234 14.40906942864722"
      },
      "geometry": {
        "type": "Point",
        "coordinates": [
          21.03416989445606,
          -64.16480337945337
        ]
      }
    },
    {
      "type": "Feature",
      "properties": {
        "norad_id": 35480,
        "name": "IRIDIUM 33 DEB",
        "group": "iridium-33-debris",
        "lat": 2.4077942677302255,
        "lon": 20.64199247878103,
        "alt_km": 724.983602867268,
        "timestamp": "2025-12-22T22:44:21.363917+00:00",
        "meta_object_name": "IRIDIUM 33 DEB",
        "meta_object_id": "1997-051QA",
        "meta_epoch": "2025-12-15T08:30:57.118464",
        "meta_mean_motion": 14.49774703,
        "meta_eccentricity": 0.00160032,
        "meta_inclination": 86.3571,
        "meta_ra_of_asc_node": 23.7786,
        "meta_arg_of_pericenter": 97.0457,
        "meta_mean_anomaly": 263.2568,
        "meta_ephemeris_type": 0,
        "meta_classification_type": "U",
        "meta_norad_cat_id": 35480,
        "meta_element_set_no": 999,
        "meta_rev_at_epoch": 87069,
        "meta_bstar": 0.00045738518,
        "meta_mean_motion_dot": 1.785e-05,
        "meta_mean_motion_ddot": 0,
        "tle_line1": "1 35480U 97051QA  25349.35482776  .00001785  00000+0  45739-3 0  9998",
        "tle_line2": "2 35480  86.3571  23.7786 0016003  97.0457 263.2568 14.49774703870695"
      },
      "geometry": {
        "type": "Point",
        "coordinates": [
          20.64199247878103,
          2.4077942677302255
        ]
      }
    },
    {
      "type": "Feature",
      "properties": {
        "norad_id": 35484,
        "name": "IRIDIUM 33 DEB",
        "group": "iridium-33-debris",
        "lat": 8.014503566496222,
        "lon": 167.45406582745554,
        "alt_km": 568.5123753309472,
        "timestamp": "2025-12-22T22:44:21.363944+00:00",
        "meta_object_name": "IRIDIUM 33 DEB",
        "meta_object_id": "1997-051QE",
        "meta_epoch": "2025-12-20T05:53:50.544096",
        "meta_mean_motion": 14.99070362,
        "meta_eccentricity": 0.0024356,
        "meta_inclination": 86.3597,
        "meta_ra_of_asc_node": 349.2325,
        "meta_arg_of_pericenter": 101.4609,
        "meta_mean_anomaly": 258.9359,
        "meta_ephemeris_type": 0,
        "meta_classification_type": "U",
        "meta_norad_cat_id": 35484,
        "meta_element_set_no": 999,
        "meta_rev_at_epoch": 62128,
        "meta_bstar": 0.0017572,
        "meta_mean_motion_dot": 0.00021521,
        "meta_mean_motion_ddot": 0,
        "tle_line1": "1 35484U 97051QE  25354.24572389  .00021521  00000+0  17572-2 0  9999",
        "tle_line2": "2 35484  86.3597 349.2325 0024356 101.4609 258.9359 14.99070362621284"
      },
      "geometry": {
        "type": "Point",
        "coordinates": [
          167.45406582745554,
          8.014503566496222
        ]
      }
    },
    {
      "type": "Feature",
      "properties": {
        "norad_id": 35488,
        "name": "IRIDIUM 33 DEB",
        "group": "iridium-33-debris",
        "lat": 62.69609109770924,
        "lon": -56.675280677877566,
        "alt_km": 601.0609792710975,
        "timestamp": "2025-12-22T22:44:21.363966+00:00",
        "meta_object_name": "IRIDIUM 33 DEB",
        "meta_object_id": "1997-051QJ",
        "meta_epoch": "2025-12-18T06:44:16.731744",
        "meta_mean_motion": 14.83196659,
        "meta_eccentricity": 0.00291507,
        "meta_inclination": 86.3243,
        "meta_ra_of_asc_node": 298.3231,
        "meta_arg_of_pericenter": 24.8223,
        "meta_mean_anomaly": 335.4395,
        "meta_ephemeris_type": 0,
        "meta_classification_type": "U",
        "meta_norad_cat_id": 35488,
        "meta_element_set_no": 999,
        "meta_rev_at_epoch": 88348,
        "meta_bstar": 0.0014098178,
        "meta_mean_motion_dot": 0.00011627,
        "meta_mean_motion_ddot": 0,
        "tle_line1": "1 35488U 97051QJ  25352.28074921  .00011627  00000+0  14098-2 0  9990",
        "tle_line2": "2 35488  86.3243 298.3231 0029150  24.8223 335.4395 14.83196659883487"
      },
      "geometry": {
        "type": "Point",
        "coordinates": [
          -56.675280677877566,
          62.69609109770924
        ]
      }
    }
  ]
}